CCSDS_OMM_VERS = 2.0
CREATION_DATE  = 
ORIGINATOR     = 

OBJECT_NAME    = ASTRO-H (HITOMI)
OBJECT_ID      = 2016-012A
CENTER_NAME    = EARTH
REF_FRAME      = TEME
TIME_SYSTEM    = UTC
MEAN_ELEMENT_THEORY = SGP/SGP4

EPOCH          = 2026-01-02T20:25:40.749312
MEAN_MOTION    = 15.09518607
ECCENTRICITY   = .00095819
INCLINATION    = 31.0008
RA_OF_ASC_NODE = 61.2557
ARG_OF_PERICENTER = 31.1498
MEAN_ANOMALY   = 328.9707

EPHEMERIS_TYPE = 0
CLASSIFICATION_TYPE = U
NORAD_CAT_ID   = 41337
ELEMENT_SET_NO = 999
REV_AT_EPOCH   = 54227
BSTAR          = .33580337E-3
MEAN_MOTION_DOT = .5617E-4
MEAN_MOTION_DDOT = 0

CCSDS_OMM_VERS = 2.0
CREATION_DATE  = 
ORIGINATOR     = 

OBJECT_NAME    = HXMT (HUIYAN)
OBJECT_ID      = 2017-034A
CENTER_NAME    = EARTH
REF_FRAME      = TEME
TIME_SYSTEM    = UTC
MEAN_ELEMENT_THEORY = SGP/SGP4

EPOCH          = 2026-01-02T22:26:42.742752
MEAN_MOTION    = 15.16544547
ECCENTRICITY   = .00323055
INCLINATION    = 43.0156
RA_OF_ASC_NODE = 21.9887
ARG_OF_PERICENTER = 181.4664
MEAN_ANOMALY   = 178.6094

EPHEMERIS_TYPE = 0
CLASSIFICATION_TYPE = U
NORAD_CAT_ID   = 42758
ELEMENT_SET_NO = 999
REV_AT_EPOCH   = 47255
BSTAR          = .53140478E-3
MEAN_MOTION_DOT = .10469E-3
MEAN_MOTION_DDOT = 0

CCSDS_OMM_VERS = 2.0
CREATION_DATE  = 
ORIGINATOR     = 

OBJECT_NAME    = CZ-2C R/B
OBJECT_ID      = 2018-054D
CENTER_NAME    = EARTH
REF_FRAME      = TEME
TIME_SYSTEM    = UTC
MEAN_ELEMENT_THEORY = SGP/SGP4

EPOCH          = 2026-01-02T10:37:46.364736
MEAN_MOTION    = 15.79181139
ECCENTRICITY   = .00124509
INCLINATION    = 35.1338
RA_OF_ASC_NODE = 40.0224
ARG_OF_PERICENTER = 349.8056
MEAN_ANOMALY   = 10.2425

EPHEMERIS_TYPE = 0
CLASSIFICATION_TYPE = U
NORAD_CAT_ID   = 43521
ELEMENT_SET_NO = 999
REV_AT_EPOCH   = 41832
BSTAR          = .90664438E-3
MEAN_MOTION_DOT = .172949E-2
MEAN_MOTION_DDOT = 0

CCSDS_OMM_VERS = 2.0
CREATION_DATE  = 
ORIGINATOR     = 

OBJECT_NAME    = SAOCOM 1A
OBJECT_ID      = 2018-076A
CENTER_NAME    = EARTH
REF_FRAME      = TEME
TIME_SYSTEM    = UTC
MEAN_ELEMENT_THEORY = SGP/SGP4

EPOCH          = 2026-01-02T14:24:16.756416
MEAN_MOTION    = 14.82157569
ECCENTRICITY   = .00013299
INCLINATION    = 97.8843
RA_OF_ASC_NODE = 191.7182
ARG_OF_PERICENTER = 83.2580
MEAN_ANOMALY   = 276.8784

EPHEMERIS_TYPE = 0
CLASSIFICATION_TYPE = U
NORAD_CAT_ID   = 43641
ELEMENT_SET_NO = 999
REV_AT_EPOCH   = 39157
BSTAR          = -.21537327E-4
MEAN_MOTION_DOT = -.224E-5
MEAN_MOTION_DDOT = 0

CCSDS_OMM_VERS = 2.0
CREATION_DATE  = 
ORIGINATOR     = 

OBJECT_NAME    = H-2A R/B
OBJECT_ID      = 2018-084L
CENTER_NAME    = EARTH
REF_FRAME      = TEME
TIME_SYSTEM    = UTC
MEAN_ELEMENT_THEORY = SGP/SGP4

EPOCH          = 2026-01-02T20:09:42.982848
MEAN_MOTION    = 15.38300835
ECCENTRICITY   = .00260624
INCLINATION    = 98.8758
RA_OF_ASC_NODE = 206.3072
ARG_OF_PERICENTER = 252.2864
MEAN_ANOMALY   = 107.5531

EPHEMERIS_TYPE = 0
CLASSIFICATION_TYPE = U
NORAD_CAT_ID   = 43682
ELEMENT_SET_NO = 999
REV_AT_EPOCH   = 39564
BSTAR          = .85381771E-3
MEAN_MOTION_DOT = .32598E-3
MEAN_MOTION_DDOT = 0

CCSDS_OMM_VERS = 2.0
CREATION_DATE  = 
ORIGINATOR     = 

OBJECT_NAME    = SAOCOM 1B
OBJECT_ID      = 2020-059A
CENTER_NAME    = EARTH
REF_FRAME      = TEME
TIME_SYSTEM    = UTC
MEAN_ELEMENT_THEORY = SGP/SGP4

EPOCH          = 2026-01-02T23:15:19.261152
MEAN_MOTION    = 14.82168449
ECCENTRICITY   = .00014624
INCLINATION    = 97.8840
RA_OF_ASC_NODE = 191.1813
ARG_OF_PERICENTER = 83.4508
MEAN_ANOMALY   = 276.6872

EPHEMERIS_TYPE = 0
CLASSIFICATION_TYPE = U
NORAD_CAT_ID   = 46265
ELEMENT_SET_NO = 999
REV_AT_EPOCH   = 28901
BSTAR          = .1601311E-3
MEAN_MOTION_DOT = .1223E-4
MEAN_MOTION_DDOT = 0

CCSDS_OMM_VERS = 2.0
CREATION_DATE  = 
ORIGINATOR     = 

OBJECT_NAME    = CSS (TIANHE)
OBJECT_ID      = 2021-035A
CENTER_NAME    = EARTH
REF_FRAME      = TEME
TIME_SYSTEM    = UTC
MEAN_ELEMENT_THEORY = SGP/SGP4

EPOCH          = 2026-01-02T21:50:44.462976
MEAN_MOTION    = 15.60104970
ECCENTRICITY   = .00103341
INCLINATION    = 41.4660
RA_OF_ASC_NODE = 248.0996
ARG_OF_PERICENTER = 207.7869
MEAN_ANOMALY   = 152.2418

EPHEMERIS_TYPE = 0
CLASSIFICATION_TYPE = U
NORAD_CAT_ID   = 48274
ELEMENT_SET_NO = 999
REV_AT_EPOCH   = 26733
BSTAR          = .36068227E-3
MEAN_MOTION_DOT = .29967E-3
MEAN_MOTION_DDOT = 0

CCSDS_OMM_VERS = 2.0
CREATION_DATE  = 
ORIGINATOR     = 

OBJECT_NAME    = COSMOS 2550
OBJECT_ID      = 2021-056A
CENTER_NAME    = EARTH
REF_FRAME      = TEME
TIME_SYSTEM    = UTC
MEAN_ELEMENT_THEORY = SGP/SGP4

EPOCH          = 2026-01-02T18:54:51.578208
MEAN_MOTION    = 15.33828757
ECCENTRICITY   = .00083404
INCLINATION    = 67.1441
RA_OF_ASC_NODE = 240.2690
ARG_OF_PERICENTER = 269.2800
MEAN_ANOMALY   = 90.7399

EPHEMERIS_TYPE = 0
CLASSIFICATION_TYPE = U
NORAD_CAT_ID   = 48865
ELEMENT_SET_NO = 999
REV_AT_EPOCH   = 25335
BSTAR          = .775845E-6
MEAN_MOTION_DOT = -.166E-5
MEAN_MOTION_DDOT = 0

CCSDS_OMM_VERS = 2.0
CREATION_DATE  = 
ORIGINATOR     = 

OBJECT_NAME    = CZ-2C R/B
OBJECT_ID      = 2022-058K
CENTER_NAME    = EARTH
REF_FRAME      = TEME
TIME_SYSTEM    = UTC
MEAN_ELEMENT_THEORY = SGP/SGP4

EPOCH          = 2026-01-02T20:04:20.614944
MEAN_MOTION    = 15.49783450
ECCENTRICITY   = .00438203
INCLINATION    = 50.1917
RA_OF_ASC_NODE = 295.8707
ARG_OF_PERICENTER = 284.9118
MEAN_ANOMALY   = 74.7001

EPHEMERIS_TYPE = 0
CLASSIFICATION_TYPE = U
NORAD_CAT_ID   = 52794
ELEMENT_SET_NO = 999
REV_AT_EPOCH   = 19990
BSTAR          = .62609253E-3
MEAN_MOTION_DOT = .36612E-3
MEAN_MOTION_DDOT = 0

CCSDS_OMM_VERS = 2.0
CREATION_DATE  = 
ORIGINATOR     = 

OBJECT_NAME    = CZ-2C R/B
OBJECT_ID      = 2022-132E
CENTER_NAME    = EARTH
REF_FRAME      = TEME
TIME_SYSTEM    = UTC
MEAN_ELEMENT_THEORY = SGP/SGP4

EPOCH          = 2026-01-02T23:08:46.199904
MEAN_MOTION    = 15.56316525
ECCENTRICITY   = .00190357
INCLINATION    = 97.2936
RA_OF_ASC_NODE = 4.5901
ARG_OF_PERICENTER = 342.3914
MEAN_ANOMALY   = 17.6679

EPHEMERIS_TYPE = 0
CLASSIFICATION_TYPE = U
NORAD_CAT_ID   = 54039
ELEMENT_SET_NO = 999
REV_AT_EPOCH   = 18013
BSTAR          = .7308186E-3
MEAN_MOTION_DOT = .51984E-3
MEAN_MOTION_DDOT = 0

CCSDS_OMM_VERS = 2.0
CREATION_DATE  = 
ORIGINATOR     = 

OBJECT_NAME    = GSLV R/B
OBJECT_ID      = 2022-138AN
CENTER_NAME    = EARTH
REF_FRAME      = TEME
TIME_SYSTEM    = UTC
MEAN_ELEMENT_THEORY = SGP/SGP4

EPOCH          = 2026-01-02T22:09:48.684960
MEAN_MOTION    = 14.96266004
ECCENTRICITY   = .00231595
INCLINATION    = 87.3821
RA_OF_ASC_NODE = 188.3786
ARG_OF_PERICENTER = 35.6982
MEAN_ANOMALY   = 324.5792

EPHEMERIS_TYPE = 0
CLASSIFICATION_TYPE = U
NORAD_CAT_ID   = 54149
ELEMENT_SET_NO = 999
REV_AT_EPOCH   = 17409
BSTAR          = .48812452E-3
MEAN_MOTION_DOT = .5567E-4
MEAN_MOTION_DDOT = 0

CCSDS_OMM_VERS = 2.0
CREATION_DATE  = 
ORIGINATOR     = 

OBJECT_NAME    = XRISM
OBJECT_ID      = 2023-137A
CENTER_NAME    = EARTH
REF_FRAME      = TEME
TIME_SYSTEM    = UTC
MEAN_ELEMENT_THEORY = SGP/SGP4

EPOCH          = 2026-01-02T06:05:40.567200
MEAN_MOTION    = 15.10604286
ECCENTRICITY   = .000761
INCLINATION    = 31.0035
RA_OF_ASC_NODE = 353.0766
ARG_OF_PERICENTER = 93.5501
MEAN_ANOMALY   = 266.6008

EPHEMERIS_TYPE = 0
CLASSIFICATION_TYPE = U
NORAD_CAT_ID   = 57800
ELEMENT_SET_NO = 999
REV_AT_EPOCH   = 12773
BSTAR          = .61517E-3
MEAN_MOTION_DOT = .10523E-3
MEAN_MOTION_DDOT = 0

CCSDS_OMM_VERS = 2.0
CREATION_DATE  = 
ORIGINATOR     = 

OBJECT_NAME    = ACS3
OBJECT_ID      = 2024-077B
CENTER_NAME    = EARTH
REF_FRAME      = TEME
TIME_SYSTEM    = UTC
MEAN_ELEMENT_THEORY = SGP/SGP4

EPOCH          = 2026-01-02T20:00:20.292480
MEAN_MOTION    = 13.86642275
ECCENTRICITY   = .00696424
INCLINATION    = 97.2522
RA_OF_ASC_NODE = 318.7256
ARG_OF_PERICENTER = 285.6103
MEAN_ANOMALY   = 73.7381

EPHEMERIS_TYPE = 0
CLASSIFICATION_TYPE = U
NORAD_CAT_ID   = 59588
ELEMENT_SET_NO = 999
REV_AT_EPOCH   = 8506
BSTAR          = .25835337E-1
MEAN_MOTION_DOT = .30714E-3
MEAN_MOTION_DDOT = 0

CCSDS_OMM_VERS = 2.0
CREATION_DATE  = 
ORIGINATOR     = 

OBJECT_NAME    = SZ-21 MODULE
OBJECT_ID      = 2025-246C
CENTER_NAME    = EARTH
REF_FRAME      = TEME
TIME_SYSTEM    = UTC
MEAN_ELEMENT_THEORY = SGP/SGP4

EPOCH          = 2026-01-02T16:30:50.579424
MEAN_MOTION    = 15.63766644
ECCENTRICITY   = .00023887
INCLINATION    = 41.4757
RA_OF_ASC_NODE = 248.1478
ARG_OF_PERICENTER = 22.7374
MEAN_ANOMALY   = 337.3571

EPHEMERIS_TYPE = 0
CLASSIFICATION_TYPE = U
NORAD_CAT_ID   = 66515
ELEMENT_SET_NO = 999
REV_AT_EPOCH   = 772
BSTAR          = .41839381E-3
MEAN_MOTION_DOT = .40143E-3
MEAN_MOTION_DDOT = 0

